STARLINK-32404          
1 61710U 24196D   26068.36319980  .00000290  00000+0  21940-4 0  9998
2 61710  53.1598 103.0657 0001274  76.9495 283.1648 15.30188060 77103
ARCSTONE                
1 64540U 25135N   26068.88991918  .00026427  00000+0  94900-3 0  9995
2 64540  97.4495 185.9194 0004120 166.7863 193.3485 15.28638458 39847
